start=new Date('2022-08-27T00:00:00.000Z').valueOf();
sats=[{"NORAD_CAT_ID":"47401","MEAN_MOTION_DOT":"-0.00000396","SEMIMAJOR_AXIS":"6925.373","INCLINATION":"53.0554","OBJECT_NAME":"STARLINK-2123","TLE_LINE2":"2 47401  53.0554  67.4636 0001518  78.8709 281.2451 15.06391950 88879","GP_ID":"211077581","MEAN_MOTION_DDOT":"0.0000000000000","EPHEMERIS_TYPE":"0","RA_OF_ASC_NODE":"67.4636","PERIAPSIS":"546.187","REV_AT_EPOCH":"8887","OBJECT_ID":"2021-005BE","RCS_SIZE":"LARGE","TLE_LINE1":"1 47401U 21005BE  22238.62132166 -.00000396  00000-0 -77106-5 0  9994","COUNTRY_CODE":"US","ARG_OF_PERICENTER":"78.8709","BSTAR":"-0.00000771060000","LAUNCH_DATE":"2021-01-20","EPOCH":"2022-08-26T14:54:42.191424","CLASSIFICATION_TYPE":"U","REF_FRAME":"TEME","MEAN_MOTION":"15.06391950","ECCENTRICITY":"0.00015180","OBJECT_TYPE":"PAYLOAD","APOAPSIS":"548.290","CENTER_NAME":"EARTH","MEAN_ELEMENT_THEORY":"SGP4","FILE":"3548620","SITE":"AFETR","DECAY_DATE":null,"MEAN_ANOMALY":"281.2451","ELEMENT_SET_NO":"999","PERIOD":"95.593","TIME_SYSTEM":"UTC"},{"MEAN_MOTION":"15.06403708","REF_FRAME":"TEME","CLASSIFICATION_TYPE":"U","EPOCH":"2022-08-26T15:21:14.298912","CENTER_NAME":"EARTH","APOAPSIS":"548.265","ECCENTRICITY":"0.00015340","OBJECT_TYPE":"PAYLOAD","MEAN_ANOMALY":"275.9160","DECAY_DATE":null,"FILE":"3548620","SITE":"AFETR","MEAN_ELEMENT_THEORY":"SGP4","TIME_SYSTEM":"UTC","PERIOD":"95.592","ELEMENT_SET_NO":"999","INCLINATION":"53.0543","OBJECT_NAME":"STARLINK-2124","SEMIMAJOR_AXIS":"6925.337","MEAN_MOTION_DOT":"0.00003008","NORAD_CAT_ID":"47402","EPHEMERIS_TYPE":"0","RA_OF_ASC_NODE":"67.3677","MEAN_MOTION_DDOT":"0.0000000000000","GP_ID":"211076837","TLE_LINE2":"2 47402  53.0543  67.3677 0001534  84.2004 275.9160 15.06403708 88871","RCS_SIZE":"LARGE","PERIAPSIS":"546.140","OBJECT_ID":"2021-005BF","REV_AT_EPOCH":"8887","LAUNCH_DATE":"2021-01-20","BSTAR":"0.00022073000000","ARG_OF_PERICENTER":"84.2004","COUNTRY_CODE":"US","TLE_LINE1":"1 47402U 21005BF  22238.63974883  .00003008  00000-0  22073-3 0  9998"},{"RCS_SIZE":"LARGE","REV_AT_EPOCH":"8887","PERIAPSIS":"546.273","OBJECT_ID":"2021-005BG","ARG_OF_PERICENTER":"89.7293","TLE_LINE1":"1 47403U 21005BG  22238.64711732  .00000736  00000-0  68274-4 0  9991","COUNTRY_CODE":"US","BSTAR":"0.00006827400000","LAUNCH_DATE":"2021-01-20","NORAD_CAT_ID":"47403","INCLINATION":"53.0545","OBJECT_NAME":"STARLINK-2127","MEAN_MOTION_DOT":"0.00000736","SEMIMAJOR_AXIS":"6925.344","TLE_LINE2":"2 47403  53.0545  67.3444 0001352  89.7293 270.3851 15.06401413 88871","MEAN_MOTION_DDOT":"0.0000000000000","RA_OF_ASC_NODE":"67.3444","EPHEMERIS_TYPE":"0","GP_ID":"211077087","MEAN_ELEMENT_THEORY":"SGP4","DECAY_DATE":null,"FILE":"3548620","SITE":"AFETR","MEAN_ANOMALY":"270.3851","PERIOD":"95.592","ELEMENT_SET_NO":"999","TIME_SYSTEM":"UTC","CLASSIFICATION_TYPE":"U","EPOCH":"2022-08-26T15:31:50.936448","MEAN_MOTION":"15.06401413","REF_FRAME":"TEME","ECCENTRICITY":"0.00013520","OBJECT_TYPE":"PAYLOAD","CENTER_NAME":"EARTH","APOAPSIS":"548.146"},{"MEAN_MOTION":"15.06400649","REF_FRAME":"TEME","CLASSIFICATION_TYPE":"U","EPOCH":"2022-08-26T21:48:42.121440","CENTER_NAME":"EARTH","APOAPSIS":"548.189","OBJECT_TYPE":"PAYLOAD","ECCENTRICITY":"0.00014110","MEAN_ANOMALY":"275.9473","DECAY_DATE":null,"FILE":"3548620","SITE":"AFETR","MEAN_ELEMENT_THEORY":"SGP4","TIME_SYSTEM":"UTC","PERIOD":"95.592","ELEMENT_SET_NO":"999","INCLINATION":"53.0558","OBJECT_NAME":"STARLINK-2128","SEMIMAJOR_AXIS":"6925.347","MEAN_MOTION_DOT":"0.00000001","NORAD_CAT_ID":"47404","EPHEMERIS_TYPE":"0","RA_OF_ASC_NODE":"66.1672","MEAN_MOTION_DDOT":"0.0000000000000","GP_ID":"211077338","TLE_LINE2":"2 47404  53.0558  66.1672 0001411  84.1677 275.9473 15.06400649 88913","RCS_SIZE":"LARGE","PERIAPSIS":"546.234","REV_AT_EPOCH":"8891","OBJECT_ID":"2021-005BH","LAUNCH_DATE":"2021-01-20","BSTAR":"0.00001895600000","ARG_OF_PERICENTER":"84.1677","COUNTRY_CODE":"US","TLE_LINE1":"1 47404U 21005BH  22238.90882085  .00000001  00000-0  18956-4 0  9998"},{"TIME_SYSTEM":"UTC","PERIOD":"95.592","ELEMENT_SET_NO":"999","MEAN_ANOMALY":"285.7713","DECAY_DATE":null,"FILE":"3548620","SITE":"AFETR","MEAN_ELEMENT_THEORY":"SGP4","CENTER_NAME":"EARTH","APOAPSIS":"548.346","ECCENTRICITY":"0.00016690","OBJECT_TYPE":"PAYLOAD","REF_FRAME":"TEME","MEAN_MOTION":"15.06407566","CLASSIFICATION_TYPE":"U","EPOCH":"2022-08-26T21:23:28.623264","LAUNCH_DATE":"2021-01-20","BSTAR":"0.00016403000000","ARG_OF_PERICENTER":"74.3460","TLE_LINE1":"1 47405U 21005BJ  22238.89130351  .00002163  00000-0  16403-3 0  9994","COUNTRY_CODE":"US","RCS_SIZE":"LARGE","PERIAPSIS":"546.035","REV_AT_EPOCH":"8848","OBJECT_ID":"2021-005BJ","RA_OF_ASC_NODE":"96.2311","EPHEMERIS_TYPE":"0","MEAN_MOTION_DDOT":"0.0000000000000","GP_ID":"211078082","TLE_LINE2":"2 47405  53.0549  96.2311 0001669  74.3460 285.7713 15.06407566 88487","OBJECT_NAME":"STARLINK-2130","INCLINATION":"53.0549","SEMIMAJOR_AXIS":"6925.325","MEAN_MOTION_DOT":"0.00002163","NORAD_CAT_ID":"47405"},{"NORAD_CAT_ID":"47406","OBJECT_NAME":"STARLINK-2133","INCLINATION":"53.0550","SEMIMAJOR_AXIS":"6925.344","MEAN_MOTION_DOT":"0.00001650","TLE_LINE2":"2 47406  53.0550  66.1205 0001289 105.4482 254.6649 15.06401495 88912","EPHEMERIS_TYPE":"0","RA_OF_ASC_NODE":"66.1205","MEAN_MOTION_DDOT":"0.0000000000000","GP_ID":"211076337","RCS_SIZE":"LARGE","PERIAPSIS":"546.316","REV_AT_EPOCH":"8891","OBJECT_ID":"2021-005BK","ARG_OF_PERICENTER":"105.4482","COUNTRY_CODE":"US","TLE_LINE1":"1 47406U 21005BK  22238.91987266  .00001650  00000-0  12960-3 0  9997","LAUNCH_DATE":"2021-01-20","BSTAR":"0.00012960000000","CLASSIFICATION_TYPE":"U","EPOCH":"2022-08-26T22:04:36.997824","REF_FRAME":"TEME","MEAN_MOTION":"15.06401495","ECCENTRICITY":"0.00012890","OBJECT_TYPE":"PAYLOAD","CENTER_NAME":"EARTH","APOAPSIS":"548.102","MEAN_ELEMENT_THEORY":"SGP4","MEAN_ANOMALY":"254.6649","DECAY_DATE":null,"FILE":"3548620","SITE":"AFETR","PERIOD":"95.592","ELEMENT_SET_NO":"999","TIME_SYSTEM":"UTC"},{"DECAY_DATE":null,"FILE":"3548620","SITE":"AFETR","MEAN_ANOMALY":"271.3907","MEAN_ELEMENT_THEORY":"SGP4","TIME_SYSTEM":"UTC","PERIOD":"95.592","ELEMENT_SET_NO":"999","REF_FRAME":"TEME","MEAN_MOTION":"15.06402560","CLASSIFICATION_TYPE":"U","EPOCH":"2022-08-26T19:04:09.660864","CENTER_NAME":"EARTH","APOAPSIS":"548.310","ECCENTRICITY":"0.00015940","OBJECT_TYPE":"PAYLOAD","RCS_SIZE":"LARGE","PERIAPSIS":"546.102","OBJECT_ID":"2021-005BL","REV_AT_EPOCH":"8889","BSTAR":"0.00006646900000","LAUNCH_DATE":"2021-01-20","ARG_OF_PERICENTER":"88.7264","TLE_LINE1":"1 47407U 21005BL  22238.79455626  .00000709  00000-0  66469-4 0  9992","COUNTRY_CODE":"US","OBJECT_NAME":"STARLINK-2134","INCLINATION":"53.0553","MEAN_MOTION_DOT":"0.00000709","SEMIMAJOR_AXIS":"6925.341","NORAD_CAT_ID":"47407","MEAN_MOTION_DDOT":"0.0000000000000","RA_OF_ASC_NODE":"66.6810","EPHEMERIS_TYPE":"0","GP_ID":"211076587","TLE_LINE2":"2 47407  53.0553  66.6810 0001594  88.7264 271.3907 15.06402560 88897"},{"NORAD_CAT_ID":"47408","SEMIMAJOR_AXIS":"6925.336","MEAN_MOTION_DOT":"-0.00002623","OBJECT_NAME":"STARLINK-2135","INCLINATION":"53.0536","TLE_LINE2":"2 47408  53.0536  67.4107 0001031 124.6442 235.4644 15.06404248 88873","GP_ID":"211077839","RA_OF_ASC_NODE":"67.4107","EPHEMERIS_TYPE":"0","MEAN_MOTION_DDOT":"0.0000000000000","PERIAPSIS":"546.487","OBJECT_ID":"2021-005BM","REV_AT_EPOCH":"8887","RCS_SIZE":"LARGE","TLE_LINE1":"1 47408U 21005BM  22238.63237915 -.00002623  00000-0 -15727-3 0  9994","COUNTRY_CODE":"US","ARG_OF_PERICENTER":"124.6442","LAUNCH_DATE":"2021-01-20","BSTAR":"-0.00015727000000","EPOCH":"2022-08-26T15:10:37.558560","CLASSIFICATION_TYPE":"U","MEAN_MOTION":"15.06404248","REF_FRAME":"TEME","ECCENTRICITY":"0.00010310","OBJECT_TYPE":"PAYLOAD","APOAPSIS":"547.915","CENTER_NAME":"EARTH","MEAN_ELEMENT_THEORY":"SGP4","MEAN_ANOMALY":"235.4644","FILE":"3548620","DECAY_DATE":null,"SITE":"AFETR","ELEMENT_SET_NO":"999","PERIOD":"95.592","TIME_SYSTEM":"UTC"},{"MEAN_MOTION_DDOT":"0.0000000000000","RA_OF_ASC_NODE":"46.4906","EPHEMERIS_TYPE":"0","GP_ID":"211077354","TLE_LINE2":"2 47548  53.0557  46.4906 0001519  76.8296 283.2862 15.06391435 86370","OBJECT_NAME":"STARLINK-1782","INCLINATION":"53.0557","MEAN_MOTION_DOT":"-0.00000141","SEMIMAJOR_AXIS":"6925.375","NORAD_CAT_ID":"47548","BSTAR":"0.00000940700000","LAUNCH_DATE":"2021-02-04","ARG_OF_PERICENTER":"76.8296","COUNTRY_CODE":"US","TLE_LINE1":"1 47548U 21009A   22238.83694997 -.00000141  00000-0  94070-5 0  9994","RCS_SIZE":"LARGE","PERIAPSIS":"546.188","REV_AT_EPOCH":"8637","OBJECT_ID":"2021-009A","CENTER_NAME":"EARTH","APOAPSIS":"548.292","ECCENTRICITY":"0.00015190","OBJECT_TYPE":"PAYLOAD","MEAN_MOTION":"15.06391435","REF_FRAME":"TEME","CLASSIFICATION_TYPE":"U","EPOCH":"2022-08-26T20:05:12.477408","TIME_SYSTEM":"UTC","PERIOD":"95.593","ELEMENT_SET_NO":"999","SITE":"AFETR","FILE":"3548620","DECAY_DATE":null,"MEAN_ANOMALY":"283.2862","MEAN_ELEMENT_THEORY":"SGP4"},{"APOAPSIS":"548.051","CENTER_NAME":"EARTH","OBJECT_TYPE":"PAYLOAD","ECCENTRICITY":"0.00011810","REF_FRAME":"TEME","MEAN_MOTION":"15.06393547","EPOCH":"2022-08-26T19:59:54.028608","CLASSIFICATION_TYPE":"U","TIME_SYSTEM":"UTC","ELEMENT_SET_NO":"999","PERIOD":"95.593","MEAN_ANOMALY":"269.5014","SITE":"AFETR","FILE":"3548620","DECAY_DATE":null,"MEAN_ELEMENT_THEORY":"SGP4","GP_ID":"211078098","RA_OF_ASC_NODE":"46.5010","EPHEMERIS_TYPE":"0","MEAN_MOTION_DDOT":"0.0000000000000","TLE_LINE2":"2 47549  53.0555  46.5010 0001181  90.6110 269.5014 15.06393547 86372","SEMIMAJOR_AXIS":"6925.368","MEAN_MOTION_DOT":"0.00000958","INCLINATION":"53.0555","OBJECT_NAME":"STARLINK-1806","NORAD_CAT_ID":"47549","LAUNCH_DATE":"2021-02-04","BSTAR":"0.00008321900000","COUNTRY_CODE":"US","TLE_LINE1":"1 47549U 21009B   22238.83326422  .00000958  00000-0  83219-4 0  9997","ARG_OF_PERICENTER":"90.6110","PERIAPSIS":"546.415","REV_AT_EPOCH":"8637","OBJECT_ID":"2021-009B","RCS_SIZE":"LARGE"}];
